OBJECT_NAME,OBJECT_ID,EPOCH,MEAN_MOTION,ECCENTRICITY,INCLINATION,RA_OF_ASC_NODE,ARG_OF_PERICENTER,MEAN_ANOMALY,EPHEMERIS_TYPE,CLASSIFICATION_TYPE,NORAD_CAT_ID,ELEMENT_SET_NO,REV_AT_EPOCH,BSTAR,MEAN_MOTION_DOT,MEAN_MOTION_DDOT
COSMOS 2507 (RODNIK-S 13),2015-050A,2026-06-10T05:30:04.055040,12.42926903,.00105089,82.4918,84.0014,11.4266,348.7051,0,U,40920,999,48599,.5183523E-3,.82E-6,0
COSMOS 2508 (RODNIK-S 14),2015-050B,2026-06-10T06:21:06.831360,12.42914305,.00153582,82.4871,82.4872,41.0493,319.1739,0,U,40921,999,48598,.50240897E-3,.8E-6,0
COSMOS 2509 (RODNIK-S 15),2015-050C,2026-06-10T06:50:09.266208,12.42883619,.00158314,82.4879,82.5762,56.9421,303.3177,0,U,40922,999,48602,.27014745E-3,.47E-6,0
LINGQIAO VIDEO A,2015-057B,2026-06-10T06:00:08.277984,14.77383398,.0015397,97.6623,156.3945,295.3393,64.6223,0,U,40959,999,57438,.7434931E-4,.481E-5,0
LINGQIAO VIDEO B,2015-057C,2026-06-10T07:04:47.243136,14.77492043,.00154933,97.6589,157.6026,295.0651,64.8952,0,U,40960,999,57443,.1626202E-3,.1113E-4,0
JILIN-1,2015-057D,2026-06-10T05:51:14.194656,14.78148994,.00153924,97.6506,160.9554,288.0151,71.9383,0,U,40961,999,57458,.10949662E-3,.745E-5,0
FOX-1A (AO-85),2015-058D,2026-06-10T02:36:07.731648,14.90935600,.01300364,64.7758,300.9815,59.3571,302.0285,0,U,40967,999,11251,.22165749E-3,.24E-4,0
SINOD-D 1,2015-058E,2026-06-09T17:23:01.757760,14.95857939,.011862,64.7758,282.2824,56.0584,305.1740,0,U,40968,999,11554,.26884E-3,.329E-4,0
ELEKTRO-L 2,2015-074A,2026-06-10T01:14:32.122752,1.00271662,.00008802,6.6749,70.6113,278.5236,273.4303,0,U,41105,999,3843,0,-.102E-5,0
DAMPE,2015-078A,2026-06-10T07:18:48.391200,15.30768331,.00137676,97.4563,166.7382,98.4584,261.8217,0,U,41173,999,58349,.47726982E-4,.1344E-4,0
ORBCOMM FM114,2015-081A,2026-06-09T22:11:06.179712,14.58850232,.00020287,47.0059,36.3417,177.6544,182.4352,0,U,41179,999,55669,.12286365E-3,.409E-5,0
ORBCOMM FM110,2015-081D,2026-06-09T23:33:09.477216,14.58869109,.00027774,47.0029,35.5134,34.0124,326.0939,0,U,41182,999,55657,.16934083E-3,.629E-5,0
ORBCOMM FM112,2015-081F,2026-06-10T02:07:51.059424,14.58893591,.0003307,47.0001,303.8133,186.7885,173.2956,0,U,41184,999,55791,.15048331E-3,.54E-5,0
ORBCOMM FM113,2015-081G,2026-06-10T03:12:29.822400,14.58851189,.00018756,47.0018,303.9737,196.8389,163.2434,0,U,41185,999,55790,.11609342E-3,.377E-5,0
ORBCOMM FM108,2015-081J,2026-06-09T21:22:33.885408,14.58863640,.00025754,47.0039,216.6960,192.2753,167.8071,0,U,41187,999,55901,.12831981E-3,.435E-5,0
ORBCOMM FM117,2015-081K,2026-06-09T20:32:52.586880,14.58859516,.00030964,47.0001,215.4948,194.0139,166.0662,0,U,41188,999,55905,.118322E-3,.388E-5,0
ORBCOMM FM116,2015-081L,2026-06-10T02:39:18.778464,14.58872358,.0000962,47.0034,304.0813,15.3603,344.7311,0,U,41189,999,55790,.15515764E-3,.563E-5,0
HORYU-4,2016-012D,2026-06-10T02:36:09.976320,15.90526809,.00034613,30.9844,130.8123,226.4757,133.5616,0,U,41340,999,56968,.10043265E-2,.337518E-2,0
ZIYUAN 3-02 (ZY 3-02),2016-033A,2026-06-10T06:48:54.733248,15.21414604,.00115007,97.3836,237.1902,317.3458,42.6884,0,U,41556,999,55693,.21877908E-3,.4849E-4,0
CARTOSAT-2C,2016-040A,2026-06-10T06:38:15.855360,15.19263622,.00100804,97.4488,221.3492,152.5368,207.6402,0,U,41599,999,55266,.18890994E-3,.3919E-4,0
LAPAN-A3,2016-040E,2026-06-10T06:32:23.667360,15.33060756,.00116224,97.1486,157.6455,48.3138,311.9098,0,U,41603,999,55375,.97692128E-4,.305E-4,0
GAOFEN-3,2016-049A,2026-06-10T06:50:17.768832,14.42215021,.0001267,98.4016,169.1753,100.4197,259.7135,0,U,41727,999,51765,.59993554E-4,.154E-5,0
CAS-2T & KS-1Q,2016-066G,2026-06-10T04:13:19.278912,14.44670996,.0342548,98.3822,236.9922,150.6915,211.3981,0,U,41847,999,50378,.22451256E-3,.1549E-4,0
YUNHAI-1 01,2016-068A,2026-06-10T07:44:02.115744,14.32700746,.0006423,98.5836,172.3934,60.0254,300.1567,0,U,41857,999,50084,.11495774E-3,.269E-5,0
RESOURCESAT-2A,2016-074A,2026-06-10T07:32:18.976128,14.21614945,.00033517,98.7523,234.8744,97.1203,263.0356,0,U,41877,999,49332,.11121118E-3,.2E-5,0
