COSMOS 2507 (RODNIK-S *)
1 40920U 15050A   26161.22921360  .00000082  00000+0  51835-3 0  9991
2 40920  82.4918  84.0014 0010508  11.4266 348.7051 12.42926903485991
COSMOS 2508 (RODNIK-S *)
1 40921U 15050B   26161.26466240  .00000080  00000+0  50241-3 0  9995
2 40921  82.4871  82.4872 0015358  41.0493 319.1739 12.42914305485980
COSMOS 2509 (RODNIK-S *)
1 40922U 15050C   26161.28482947  .00000047  00000+0  27015-3 0  9996
2 40922  82.4879  82.5762 0015831  56.9421 303.3177 12.42883619486020
LINGQIAO VIDEO A        
1 40959U 15057B   26161.25009581  .00000481  00000+0  74349-4 0  9994
2 40959  97.6623 156.3945 0015397 295.3393  64.6223 14.77383398574387
LINGQIAO VIDEO B        
1 40960U 15057C   26161.29499124  .00001113  00000+0  16262-3 0  9998
2 40960  97.6589 157.6026 0015493 295.0651  64.8952 14.77492043574430
JILIN-1                 
1 40961U 15057D   26161.24391429  .00000745  00000+0  10950-3 0  9991
2 40961  97.6506 160.9554 0015392 288.0151  71.9383 14.78148994574585
FOX-1A (AO-85)          
1 40967U 15058D   26161.10842282  .00002400  00000+0  22166-3 0  9993
2 40967  64.7758 300.9815 0130036  59.3571 302.0285 14.90935600112511
SINOD-D 1               
1 40968U 15058E   26160.72432590  .00003290  00000+0  26884-3 0  9997
2 40968  64.7758 282.2824 0118620  56.0584 305.1740 14.95857939115546
ELEKTRO-L 2             
1 41105U 15074A   26161.05176068 -.00000102  00000+0  00000+0 0  9999
2 41105   6.6749  70.6113 0000880 278.5236 273.4303  1.00271662 38437
DAMPE                   
1 41173U 15078A   26161.30472675  .00001344  00000+0  47727-4 0  9999
2 41173  97.4563 166.7382 0013767  98.4584 261.8217 15.30768331583490
ORBCOMM FM114           
1 41179U 15081A   26160.92437708  .00000409  00000+0  12286-3 0  9996
2 41179  47.0059  36.3417 0002028 177.6544 182.4352 14.58850232556693
ORBCOMM FM110           
1 41182U 15081D   26160.98135969  .00000629  00000+0  16934-3 0  9998
2 41182  47.0029  35.5134 0002777  34.0124 326.0939 14.58869109556579
ORBCOMM FM112           
1 41184U 15081F   26161.08878541  .00000540  00000+0  15048-3 0  9999
2 41184  47.0001 303.8133 0003307 186.7885 173.2956 14.58893591557912
ORBCOMM FM113           
1 41185U 15081G   26161.13367850  .00000377  00000+0  11609-3 0  9999
2 41185  47.0018 303.9737 0001875 196.8389 163.2434 14.58851189557907
ORBCOMM FM108           
1 41187U 15081J   26160.89066997  .00000435  00000+0  12832-3 0  9995
2 41187  47.0039 216.6960 0002575 192.2753 167.8071 14.58863640559019
ORBCOMM FM117           
1 41188U 15081K   26160.85616420  .00000388  00000+0  11832-3 0  9990
2 41188  47.0001 215.4948 0003096 194.0139 166.0662 14.58859516559057
ORBCOMM FM116           
1 41189U 15081L   26161.11063401  .00000563  00000+0  15516-3 0  9994
2 41189  47.0034 304.0813 0000962  15.3603 344.7311 14.58872358557907
HORYU-4                 
1 41340U 16012D   26161.10844880  .00337518  00000+0  10043-2 0  9997
2 41340  30.9844 130.8123 0003461 226.4757 133.5616 15.90526809569681
ZIYUAN 3-02 (ZY 3-02)   
1 41556U 16033A   26161.28396682  .00004849  00000+0  21878-3 0  9997
2 41556  97.3836 237.1902 0011500 317.3458  42.6884 15.21414604556939
CARTOSAT-2C             
1 41599U 16040A   26161.27657240  .00003919  00000+0  18891-3 0  9999
2 41599  97.4488 221.3492 0010080 152.5368 207.6402 15.19263622552664
LAPAN-A3                
1 41603U 16040E   26161.27249615  .00003050  00000+0  97692-4 0  9991
2 41603  97.1486 157.6455 0011622  48.3138 311.9098 15.33060756553755
GAOFEN-3                
1 41727U 16049A   26161.28492788  .00000154  00000+0  59994-4 0  9994
2 41727  98.4016 169.1753 0001267 100.4197 259.7135 14.42215021517659
CAS-2T & KS-1Q          
1 41847U 16066G   26161.17591758  .00001549  00000+0  22451-3 0  9997
2 41847  98.3822 236.9922 0342548 150.6915 211.3981 14.44670996503782
YUNHAI-1 01             
1 41857U 16068A   26161.32224671  .00000269  00000+0  11496-3 0  9999
2 41857  98.5836 172.3934 0006423  60.0254 300.1567 14.32700746500840
RESOURCESAT-2A          
1 41877U 16074A   26161.31410852  .00000200  00000+0  11121-3 0  9995
2 41877  98.7523 234.8744 0003351  97.1203 263.0356 14.21614945493322
